start=new Date('2023-01-04T00:00:00.000Z').valueOf();
sats=[{"MEAN_ANOMALY":"317.2739","MEAN_MOTION":"15.08845851","GP_ID":"222112998","REV_AT_EPOCH":"4782","PERIAPSIS":"537.747","OBJECT_ID":"2022-022X","OBJECT_TYPE":"PAYLOAD","INCLINATION":"53.2162","DECAY_DATE":null,"BSTAR":"0.00005539400000","MEAN_ELEMENT_THEORY":"SGP4","TIME_SYSTEM":"UTC","TLE_LINE1":"1 51873U 22022X   23003.54738372  .00000593  00000-0  55394-4 0  9996","SEMIMAJOR_AXIS":"6917.863","NORAD_CAT_ID":"51873","SITE":"AFETR","RCS_SIZE":"LARGE","FILE":"3730926","CENTER_NAME":"EARTH","ARG_OF_PERICENTER":"42.8476","MEAN_MOTION_DDOT":"0.0000000000000","ECCENTRICITY":"0.00028630","COUNTRY_CODE":"US","APOAPSIS":"541.708","OBJECT_NAME":"STARLINK-3582","MEAN_MOTION_DOT":"0.00000593","EPHEMERIS_TYPE":"0","TLE_LINE2":"2 51873  53.2162 181.6923 0002863  42.8476 317.2739 15.08845851 47823","PERIOD":"95.437","LAUNCH_DATE":"2022-03-03","CLASSIFICATION_TYPE":"U","REF_FRAME":"TEME","ELEMENT_SET_NO":"999","RA_OF_ASC_NODE":"181.6923","EPOCH":"2023-01-03T13:08:13.953408"},{"RCS_SIZE":"LARGE","FILE":"3730582","CENTER_NAME":"EARTH","ARG_OF_PERICENTER":"48.5379","MEAN_MOTION_DDOT":"0.0000000000000","ECCENTRICITY":"0.00024410","COUNTRY_CODE":"US","APOAPSIS":"541.413","OBJECT_NAME":"STARLINK-3574","EPHEMERIS_TYPE":"0","MEAN_MOTION_DOT":"0.00000419","TLE_LINE2":"2 51874  53.2160 181.6699 0002441  48.5379 311.5822 15.08846747 47813","PERIOD":"95.437","CLASSIFICATION_TYPE":"U","LAUNCH_DATE":"2022-03-03","REF_FRAME":"TEME","ELEMENT_SET_NO":"999","EPOCH":"2023-01-03T13:18:50.220288","RA_OF_ASC_NODE":"181.6699","MEAN_ANOMALY":"311.5822","MEAN_MOTION":"15.08846747","GP_ID":"222082729","PERIAPSIS":"538.036","REV_AT_EPOCH":"4781","OBJECT_ID":"2022-022Y","OBJECT_TYPE":"PAYLOAD","INCLINATION":"53.2160","DECAY_DATE":null,"BSTAR":"0.00004440600000","MEAN_ELEMENT_THEORY":"SGP4","TIME_SYSTEM":"UTC","TLE_LINE1":"1 51874U 22022Y   23003.55474792  .00000419  00000-0  44406-4 0  9990","SEMIMAJOR_AXIS":"6917.860","NORAD_CAT_ID":"51874","SITE":"AFETR"},{"COUNTRY_CODE":"US","ECCENTRICITY":"0.00021870","MEAN_MOTION_DOT":"-0.00003007","EPHEMERIS_TYPE":"0","OBJECT_NAME":"STARLINK-3585","APOAPSIS":"541.251","RCS_SIZE":"LARGE","ARG_OF_PERICENTER":"48.6775","MEAN_MOTION_DDOT":"0.0000000000000","CENTER_NAME":"EARTH","FILE":"3730926","ELEMENT_SET_NO":"999","REF_FRAME":"TEME","EPOCH":"2023-01-03T12:58:59.165184","RA_OF_ASC_NODE":"181.7307","PERIOD":"95.437","TLE_LINE2":"2 51875  53.2130 181.7307 0002187  48.6775 311.4405 15.08842267 47826","LAUNCH_DATE":"2022-03-03","CLASSIFICATION_TYPE":"U","OBJECT_TYPE":"PAYLOAD","OBJECT_ID":"2022-022Z","DECAY_DATE":null,"INCLINATION":"53.2130","MEAN_ANOMALY":"311.4405","GP_ID":"222114498","REV_AT_EPOCH":"4782","PERIAPSIS":"538.226","MEAN_MOTION":"15.08842267","SEMIMAJOR_AXIS":"6917.873","SITE":"AFETR","NORAD_CAT_ID":"51875","MEAN_ELEMENT_THEORY":"SGP4","BSTAR":"-0.00017087000000","TLE_LINE1":"1 51875U 22022Z   23003.54096256 -.00003007  00000-0 -17087-3 0  9997","TIME_SYSTEM":"UTC"},{"BSTAR":"0.00011447000000","MEAN_ELEMENT_THEORY":"SGP4","TIME_SYSTEM":"UTC","TLE_LINE1":"1 51876U 22022AA  23003.48483068  .00001534  00000-0  11447-3 0  9997","SEMIMAJOR_AXIS":"6917.885","NORAD_CAT_ID":"51876","SITE":"AFETR","MEAN_ANOMALY":"321.8446","MEAN_MOTION":"15.08838644","GP_ID":"222114728","REV_AT_EPOCH":"4781","PERIAPSIS":"537.345","OBJECT_ID":"2022-022AA","OBJECT_TYPE":"PAYLOAD","DECAY_DATE":null,"INCLINATION":"53.2168","TLE_LINE2":"2 51876  53.2168 181.9691 0003476  38.2793 321.8446 15.08838644 47816","PERIOD":"95.438","LAUNCH_DATE":"2022-03-03","CLASSIFICATION_TYPE":"U","REF_FRAME":"TEME","ELEMENT_SET_NO":"999","EPOCH":"2023-01-03T11:38:09.370752","RA_OF_ASC_NODE":"181.9691","RCS_SIZE":"LARGE","FILE":"3730926","CENTER_NAME":"EARTH","MEAN_MOTION_DDOT":"0.0000000000000","ARG_OF_PERICENTER":"38.2793","ECCENTRICITY":"0.00034760","COUNTRY_CODE":"US","APOAPSIS":"542.154","OBJECT_NAME":"STARLINK-3583","MEAN_MOTION_DOT":"0.00001534","EPHEMERIS_TYPE":"0"},{"MEAN_ELEMENT_THEORY":"SGP4","BSTAR":"0.00010026000000","TLE_LINE1":"1 51877U 22022AB  23003.73229313  .00001308  00000-0  10026-3 0  9998","TIME_SYSTEM":"UTC","SEMIMAJOR_AXIS":"6917.867","SITE":"AFETR","NORAD_CAT_ID":"51877","MEAN_ANOMALY":"307.4336","PERIAPSIS":"538.340","GP_ID":"222088603","REV_AT_EPOCH":"4798","MEAN_MOTION":"15.08844254","OBJECT_TYPE":"PAYLOAD","OBJECT_ID":"2022-022AB","INCLINATION":"53.2166","DECAY_DATE":null,"PERIOD":"95.437","TLE_LINE2":"2 51877  53.2166 170.8651 0002013  52.6839 307.4336 15.08844254 47985","CLASSIFICATION_TYPE":"U","LAUNCH_DATE":"2022-03-03","ELEMENT_SET_NO":"999","REF_FRAME":"TEME","RA_OF_ASC_NODE":"170.8651","EPOCH":"2023-01-03T17:34:30.126432","RCS_SIZE":"LARGE","MEAN_MOTION_DDOT":"0.0000000000000","ARG_OF_PERICENTER":"52.6839","CENTER_NAME":"EARTH","FILE":"3730870","COUNTRY_CODE":"US","ECCENTRICITY":"0.00020130","EPHEMERIS_TYPE":"0","MEAN_MOTION_DOT":"0.00001308","OBJECT_NAME":"STARLINK-3556","APOAPSIS":"541.125"},{"SEMIMAJOR_AXIS":"6917.857","NORAD_CAT_ID":"51878","SITE":"AFETR","BSTAR":"0.00019246000000","MEAN_ELEMENT_THEORY":"SGP4","TIME_SYSTEM":"UTC","TLE_LINE1":"1 51878U 22022AC  23003.74242009  .00002777  00000-0  19246-3 0  9991","OBJECT_ID":"2022-022AC","OBJECT_TYPE":"PAYLOAD","DECAY_DATE":null,"INCLINATION":"53.2156","MEAN_ANOMALY":"308.7792","MEAN_MOTION":"15.08847538","GP_ID":"222088695","REV_AT_EPOCH":"4785","PERIAPSIS":"537.992","REF_FRAME":"TEME","ELEMENT_SET_NO":"999","RA_OF_ASC_NODE":"180.8279","EPOCH":"2023-01-03T17:49:05.095776","TLE_LINE2":"2 51878  53.2156 180.8279 0002501  51.3423 308.7792 15.08847538 47853","PERIOD":"95.437","CLASSIFICATION_TYPE":"U","LAUNCH_DATE":"2022-03-03","ECCENTRICITY":"0.00025010","COUNTRY_CODE":"US","APOAPSIS":"541.453","OBJECT_NAME":"STARLINK-3575","EPHEMERIS_TYPE":"0","MEAN_MOTION_DOT":"0.00002777","RCS_SIZE":"MEDIUM","FILE":"3730870","CENTER_NAME":"EARTH","MEAN_MOTION_DDOT":"0.0000000000000","ARG_OF_PERICENTER":"51.3423"},{"MEAN_ELEMENT_THEORY":"SGP4","BSTAR":"0.00006470400000","TLE_LINE1":"1 51879U 22022AD  23003.59245989  .00000742  00000-0  64704-4 0  9995","TIME_SYSTEM":"UTC","SEMIMAJOR_AXIS":"6917.889","SITE":"AFETR","NORAD_CAT_ID":"51879","MEAN_ANOMALY":"299.7689","PERIAPSIS":"538.497","GP_ID":"222082750","REV_AT_EPOCH":"4796","MEAN_MOTION":"15.08837252","OBJECT_TYPE":"PAYLOAD","OBJECT_ID":"2022-022AD","INCLINATION":"53.2153","DECAY_DATE":null,"PERIOD":"95.438","TLE_LINE2":"2 51879  53.2153 171.4917 0001817  60.3483 299.7689 15.08837252 47969","CLASSIFICATION_TYPE":"U","LAUNCH_DATE":"2022-03-03","ELEMENT_SET_NO":"999","REF_FRAME":"TEME","RA_OF_ASC_NODE":"171.4917","EPOCH":"2023-01-03T14:13:08.534496","RCS_SIZE":"LARGE","MEAN_MOTION_DDOT":"0.0000000000000","ARG_OF_PERICENTER":"60.3483","FILE":"3730584","CENTER_NAME":"EARTH","COUNTRY_CODE":"US","ECCENTRICITY":"0.00018170","MEAN_MOTION_DOT":"0.00000742","EPHEMERIS_TYPE":"0","OBJECT_NAME":"STARLINK-3572","APOAPSIS":"541.011"},{"MEAN_ANOMALY":"317.7403","MEAN_MOTION":"15.08834562","GP_ID":"222114228","PERIAPSIS":"537.735","REV_AT_EPOCH":"4781","OBJECT_ID":"2022-022AE","OBJECT_TYPE":"PAYLOAD","DECAY_DATE":null,"INCLINATION":"53.2145","BSTAR":"0.00014158000000","MEAN_ELEMENT_THEORY":"SGP4","TIME_SYSTEM":"UTC","TLE_LINE1":"1 51880U 22022AE  23003.50785699  .00001965  00000-0  14158-3 0  9990","SEMIMAJOR_AXIS":"6917.897","NORAD_CAT_ID":"51880","SITE":"AFETR","RCS_SIZE":"LARGE","FILE":"3730926","CENTER_NAME":"EARTH","ARG_OF_PERICENTER":"42.3815","MEAN_MOTION_DDOT":"0.0000000000000","ECCENTRICITY":"0.00029300","COUNTRY_CODE":"US","APOAPSIS":"541.789","OBJECT_NAME":"STARLINK-3566","MEAN_MOTION_DOT":"0.00001965","EPHEMERIS_TYPE":"0","TLE_LINE2":"2 51880  53.2145 181.8686 0002930  42.3815 317.7403 15.08834562 47816","PERIOD":"95.438","LAUNCH_DATE":"2022-03-03","CLASSIFICATION_TYPE":"U","REF_FRAME":"TEME","ELEMENT_SET_NO":"999","EPOCH":"2023-01-03T12:11:18.843936","RA_OF_ASC_NODE":"181.8686"},{"PERIOD":"95.437","TLE_LINE2":"2 51881  53.2160 171.5300 0003050  51.0233 309.1030 15.08854591 48016","CLASSIFICATION_TYPE":"U","LAUNCH_DATE":"2022-03-03","ELEMENT_SET_NO":"999","REF_FRAME":"TEME","EPOCH":"2023-01-03T14:02:32.496576","RA_OF_ASC_NODE":"171.5300","RCS_SIZE":"LARGE","ARG_OF_PERICENTER":"51.0233","MEAN_MOTION_DDOT":"0.0000000000000","CENTER_NAME":"EARTH","FILE":"3730584","COUNTRY_CODE":"US","ECCENTRICITY":"0.00030500","MEAN_MOTION_DOT":"0.00001025","EPHEMERIS_TYPE":"0","OBJECT_NAME":"STARLINK-3504","APOAPSIS":"541.811","MEAN_ELEMENT_THEORY":"SGP4","BSTAR":"0.00008250700000","TLE_LINE1":"1 51881U 22022AF  23003.58509834  .00001025  00000-0  82507-4 0  9995","TIME_SYSTEM":"UTC","SEMIMAJOR_AXIS":"6917.836","SITE":"AFETR","NORAD_CAT_ID":"51881","MEAN_ANOMALY":"309.1030","PERIAPSIS":"537.591","GP_ID":"222082743","REV_AT_EPOCH":"4801","MEAN_MOTION":"15.08854591","OBJECT_TYPE":"PAYLOAD","OBJECT_ID":"2022-022AF","INCLINATION":"53.2160","DECAY_DATE":null},{"APOAPSIS":"541.965","EPHEMERIS_TYPE":"0","MEAN_MOTION_DOT":"-0.00001132","OBJECT_NAME":"STARLINK-3570","ECCENTRICITY":"0.00032040","COUNTRY_CODE":"US","FILE":"3730926","CENTER_NAME":"EARTH","ARG_OF_PERICENTER":"43.6819","MEAN_MOTION_DDOT":"0.0000000000000","RCS_SIZE":"LARGE","RA_OF_ASC_NODE":"173.2481","EPOCH":"2023-01-03T04:46:07.800096","ELEMENT_SET_NO":"999","REF_FRAME":"TEME","LAUNCH_DATE":"2022-03-03","CLASSIFICATION_TYPE":"U","TLE_LINE2":"2 51882  53.2166 173.2481 0003204  43.6819 316.4426 15.08838980 47956","PERIOD":"95.438","DECAY_DATE":null,"INCLINATION":"53.2166","OBJECT_ID":"2022-022AG","OBJECT_TYPE":"PAYLOAD","MEAN_MOTION":"15.08838980","REV_AT_EPOCH":"4795","GP_ID":"222113248","PERIAPSIS":"537.532","MEAN_ANOMALY":"316.4426","SITE":"AFETR","NORAD_CAT_ID":"51882","SEMIMAJOR_AXIS":"6917.884","TLE_LINE1":"1 51882U 22022AG  23003.19870139 -.00001132  00000-0 -52986-4 0  9991","TIME_SYSTEM":"UTC","BSTAR":"-0.00005298600000","MEAN_ELEMENT_THEORY":"SGP4"}];
